GPS BIIRM-3 (PRN 12)    
1 29601U 06052A   26087.64548781 -.00000036  00000+0  00000+0 0  9995
2 29601  54.9511 217.1971 0087291  89.8188 271.1436  2.00553221141798
